TEVEL2-7                
1 63238U 25052AE  26068.66113295  .00019244  00000+0  69668-3 0  9998
2 63238  97.4054 324.3041 0008105 124.6830 235.5175 15.28414096 54803
STARLINK-34351          
1 64387U 25127T   26068.31403325  .00033068  00000+0  12051-2 0  9998
2 64387  42.9950 181.5511 0000119 283.2524  76.8314 15.27598977 42418
